{"type":"FeatureCollection","features":[{"type":"Feature","properties":{"name":"Dolj \u2014 tile mirror (works while ANCPI is offline)","tiles":8988},"geometry":{"type":"Polygon","coordinates":[[[22.82236,43.84565],[22.82002,43.90861],[22.83246,43.90885],[22.83179,43.92684],[22.84424,43.92708],[22.84291,43.96306],[22.85537,43.96329],[22.85405,43.99927],[22.86651,43.99951],[22.86618,44.00851],[22.90357,44.00921],[22.90324,44.01821],[22.9905,44.0198],[22.98988,44.03779],[23.00235,44.03802],[23.00204,44.04701],[23.01452,44.04723],[23.01421,44.05623],[23.02668,44.05645],[23.02638,44.06544],[23.0139,44.06522],[23.0136,44.07422],[23.00112,44.074],[23.00081,44.08299],[22.91346,44.0814],[22.91314,44.0904],[22.90066,44.09016],[22.90033,44.09916],[22.87537,44.09869],[22.87504,44.10769],[22.86256,44.10745],[22.86223,44.11644],[22.84974,44.1162],[22.84941,44.1252],[22.82444,44.12472],[22.8241,44.13371],[22.79912,44.13323],[22.79878,44.14222],[22.78629,44.14198],[22.78595,44.15097],[22.77346,44.15072],[22.77312,44.15972],[22.76062,44.15947],[22.74668,44.51925],[23.61441,44.53326],[23.61376,44.56025],[23.75221,44.56187],[23.75279,44.53487],[23.95409,44.53692],[23.95457,44.50993],[23.942,44.50981],[23.94216,44.50081],[23.91702,44.50057],[23.91735,44.48257],[23.92992,44.48269],[23.93042,44.4557],[23.91786,44.45558],[23.9182,44.43758],[23.94332,44.43782],[23.94348,44.42882],[23.98116,44.42917],[23.98179,44.39317],[24.00689,44.3934],[24.00673,44.40239],[24.04439,44.40272],[24.04469,44.38472],[24.06979,44.38493],[24.07022,44.35794],[24.08276,44.35804],[24.08305,44.34004],[24.09559,44.34014],[24.09587,44.32215],[24.1084,44.32225],[24.10854,44.31325],[24.13361,44.31344],[24.13414,44.27745],[24.17172,44.27773],[24.17198,44.25973],[24.19702,44.25991],[24.19715,44.25091],[24.23471,44.25118],[24.2373,44.0532],[24.19987,44.05294],[24.20036,44.01694],[24.23777,44.0172],[24.24011,43.83723],[24.21525,43.83706],[24.21573,43.80106],[24.19088,43.80089],[24.191,43.79189],[24.16616,43.79171],[24.16642,43.77371],[24.154,43.77362],[24.15413,43.76462],[24.14171,43.76452],[24.1425,43.71053],[24.13009,43.71044],[24.13049,43.68344],[24.0809,43.68305],[24.08075,43.69204],[24.05595,43.69184],[24.05581,43.70084],[24.04341,43.70073],[24.04326,43.70973],[24.00605,43.7094],[24.0059,43.7184],[23.98108,43.71818],[23.98093,43.72718],[23.9437,43.72683],[23.94354,43.73583],[23.85668,43.73498],[23.8565,43.74397],[23.83168,43.74372],[23.8315,43.75272],[23.80668,43.75245],[23.80649,43.76145],[23.76925,43.76105],[23.76906,43.77005],[23.74423,43.76977],[23.74404,43.77877],[23.73162,43.77863],[23.73143,43.78763],[23.66933,43.78691],[23.66953,43.77791],[23.58261,43.77684],[23.58239,43.78584],[23.54514,43.78536],[23.54491,43.79436],[23.52007,43.79403],[23.51985,43.80303],[23.50742,43.80287],[23.5072,43.81186],[23.49477,43.8117],[23.49454,43.82069],[23.45726,43.82019],[23.45703,43.82918],[23.43217,43.82884],[23.43193,43.83783],[23.28279,43.83565],[23.28305,43.82665],[23.23335,43.82588],[23.23362,43.81688],[23.20877,43.81649],[23.20905,43.80749],[23.1842,43.80709],[23.18448,43.7981],[23.14722,43.79749],[23.1475,43.78849],[23.073,43.78723],[23.0733,43.77824],[23.03605,43.77759],[23.03575,43.78659],[22.9985,43.78593],[22.9982,43.79492],[22.94853,43.79402],[22.94821,43.80302],[22.92337,43.80256],[22.92306,43.81156],[22.87337,43.81062],[22.87305,43.81962],[22.8482,43.81914],[22.84787,43.82814],[22.83545,43.8279],[22.83479,43.84589],[22.82236,43.84565]]]}}]}